NORAD_CAT_ID,OBJECT_NAME,OBJECT_TYPE,EPOCH,MEAN_MOTION,ECCENTRICITY,INCLINATION,RA_OF_ASC_NODE,ARG_OF_PERICENTER,MEAN_ANOMALY,BSTAR,MEAN_MOTION_DOT,MEAN_MOTION_DDOT,TLE_LINE0,TLE_LINE1,TLE_LINE2,SEMIMAJOR_AXIS,PERIOD,APOGEE,PERIGEE,DECAYED
49431.0,STARLINK-3153,PAYLOAD,2023-11-20 12:39:38,15.08841534,0.0001377,53.2188,40.9908,89.276,270.839,9.4359e-05,1.214e-05,0.0,0 STARLINK-3153,1 49431U 21104Z   23324.52752328  .00001214  00000-0  94359-4 0  9999,2 49431  53.2188  40.9908 0001377  89.2760 270.8390 15.08841534111797,6917.876,95.437,540.693,538.788,0.0
49431.0,STARLINK-3153,PAYLOAD,2023-11-20 22:11:56,15.08843766,0.0001399,53.2188,39.2066,87.9989,272.1163,5.2274e-05,5.44e-06,0.0,0 STARLINK-3153,1 49431U 21104Z   23324.92496201  .00000544  00000-0  52274-4 0  9993,2 49431  53.2188  39.2066 0001399  87.9989 272.1163 15.08843766111854,6917.869,95.437,540.702,538.766,0.0
49431.0,STARLINK-3153,PAYLOAD,2023-11-21 10:55:01,15.08845884,0.0001062,53.2186,36.8279,68.3762,291.7344,0.00010519,1.387e-05,0.0,0 STARLINK-3153,1 49431U 21104Z   23325.45487944  .00001387  00000-0  10519-3 0  9997,2 49431  53.2186  36.8279 0001062  68.3762 291.7344 15.08845884113011,6917.862,95.437,540.462,538.993,0.0
49431.0,STARLINK-3153,PAYLOAD,2023-11-21 14:05:47,15.08850448,0.0001355,53.2182,36.2324,81.526,278.5885,0.00012767,1.745e-05,0.0,0 STARLINK-3153,1 49431U 21104Z   23325.58735637  .00001745  00000-0  12767-3 0  9991,2 49431  53.2182  36.2324 0001355  81.5260 278.5885 15.08850448111953,6917.848,95.437,540.651,538.776,0.0
49431.0,STARLINK-3153,PAYLOAD,2023-11-22 12:21:11,15.08854269,0.0001848,53.2183,32.0715,63.5611,296.557,0.00027253,4.054e-05,0.0,0 STARLINK-3153,1 49431U 21104Z   23326.51471520  .00004054  00000-0  27253-3 0  9995,2 49431  53.2183  32.0715 0001848  63.5611 296.5570 15.08854269112091,6917.837,95.437,540.98,538.423,0.0
49431.0,STARLINK-3153,PAYLOAD,2023-11-23 09:01:13,15.08834011,0.000192,53.2195,28.2032,66.1933,293.926,0.00021376,3.115e-05,0.0,0 STARLINK-3153,1 49431U 21104Z   23327.37584784  .00003115  00000-0  21376-3 0  9994,2 49431  53.2195  28.2032 0001920  66.1933 293.9260 15.08834011113305,6917.899,95.438,541.092,538.435,0.0
49431.0,STARLINK-3153,PAYLOAD,2023-11-24 10:27:23,15.08830797,0.0001907,53.2185,23.4497,84.6224,275.4986,-4.9956e-05,-1.083e-05,0.0,0 STARLINK-3153,1 49431U 21104Z   23328.43569120 -.00001083  00000-0 -49956-4 0  9998,2 49431  53.2185  23.4497 0001907  84.6224 275.4986 15.08830797113463,6917.909,95.438,541.093,538.454,0.0
49431.0,STARLINK-3153,PAYLOAD,2023-11-24 13:38:09,15.08839309,0.0001601,53.2181,22.8489,101.699,258.4182,-2.2256e-05,-6.42e-06,0.0,0 STARLINK-3153,1 49431U 21104Z   23328.56816408 -.00000642  00000-0 -22256-4 0  9990,2 49431  53.2181  22.8489 0001601 101.6990 258.4182 15.08839309112404,6917.883,95.438,540.855,538.64,0.0
49431.0,STARLINK-3153,PAYLOAD,2023-11-25 10:18:09,15.08845214,0.0001764,53.2199,18.9901,90.9735,269.1459,0.00018646,2.681e-05,0.0,0 STARLINK-3153,1 49431U 21104Z   23329.42928186  .00002681  00000-0  18646-3 0  9993,2 49431  53.2199  18.9901 0001764  90.9735 269.1459 15.08845214112537,6917.864,95.437,540.95,538.509,0.0
49431.0,STARLINK-3153,PAYLOAD,2023-11-26 03:47:21,15.0889835,0.0002808,53.218,15.7156,114.4098,245.7187,0.00096335,0.00015102,0.0,0 STARLINK-3153,1 49431U 21104Z   23330.15789246  .00015102  00000-0  96335-3 0  9990,2 49431  53.2180  15.7156 0002808 114.4098 245.7187 15.08898350113727,6917.702,95.434,541.51,537.625,0.0
49431.0,STARLINK-3153,PAYLOAD,2023-11-26 08:33:34,15.08827036,0.0001413,53.2184,14.8261,76.1384,283.9765,-0.00012413,-2.262e-05,0.0,0 STARLINK-3153,1 49431U 21104Z   23330.35664525 -.00002262  00000-0 -12413-3 0  9994,2 49431  53.2184  14.8261 0001413  76.1384 283.9765 15.08827036113753,6917.92,95.438,540.763,538.808,0.0
49431.0,STARLINK-3153,PAYLOAD,2023-11-26 22:52:03,15.08811499,0.0001572,53.2165,12.1454,72.1418,287.9746,-0.00041053,-6.811e-05,0.0,0 STARLINK-3153,1 49431U 21104Z   23330.95281802 -.00006811  00000-0 -41053-3 0  9999,2 49431  53.2165  12.1454 0001572  72.1418 287.9746 15.08811499113846,6917.968,95.439,540.92,538.745,0.0
49431.0,STARLINK-3153,PAYLOAD,2023-11-27 09:59:45,15.08821278,0.0001594,53.2185,10.0676,97.5459,262.5715,-0.00032555,-5.463e-05,0.0,0 STARLINK-3153,1 49431U 21104Z   23331.41649353 -.00005463  00000-0 -32555-3 0  9999,2 49431  53.2185  10.0676 0001594  97.5459 262.5715 15.08821278113910,6917.938,95.439,540.905,538.7,0.0
49431.0,STARLINK-3153,PAYLOAD,2023-11-27 13:10:31,15.08817146,0.0001424,53.2168,9.4663,101.3354,258.7798,7.5737e-05,9.17e-06,0.0,0 STARLINK-3153,1 49431U 21104Z   23331.54897532  .00000917  00000-0  75737-4 0  9994,2 49431  53.2168   9.4663 0001424 101.3354 258.7798 15.08817146112858,6917.95,95.439,540.8,538.83,0.0
49431.0,STARLINK-3153,PAYLOAD,2023-11-28 01:53:36,15.08850905,0.0001375,53.2169,7.0903,99.6586,260.4562,0.0015119,0.00023863,0.0,0 STARLINK-3153,1 49431U 21104Z   23332.07889744  .00023863  00000-0  15119-2 0  9990,2 49431  53.2169   7.0903 0001375  99.6586 260.4562 15.08850905114010,6917.847,95.437,540.663,538.761,0.0
49431.0,STARLINK-3153,PAYLOAD,2023-11-28 09:50:31,15.08877501,0.0001423,53.2163,5.6042,88.2184,271.8971,0.0016858,0.00026671,0.0,0 STARLINK-3153,1 49431U 21104Z   23332.41009041  .00026671  00000-0  16858-2 0  9993,2 49431  53.2163   5.6042 0001423  88.2184 271.8971 15.08877501112989,6917.766,95.435,540.615,538.646,0.0
49431.0,STARLINK-3153,PAYLOAD,2023-11-29 11:16:43,15.08817039,0.0001413,53.2159,0.8458,98.5885,261.5267,0.0017975,0.00028417,0.0,0 STARLINK-3153,1 49431U 21104Z   23333.46994934  .00028417  00000-0  17975-2 0  9994,2 49431  53.2159   0.8458 0001413  98.5885 261.5267 15.08817039114226,6917.951,95.439,540.793,538.838,0.0
49431.0,STARLINK-3153,PAYLOAD,2023-11-30 07:56:43,15.088786,0.0001491,53.2159,356.9801,97.0639,263.0522,0.0021451,0.00034053,0.0,0 STARLINK-3153,1 49431U 21104Z   23334.33106318  .00034053  00000-0  21451-2 0  9999,2 49431  53.2159 356.9801 0001491  97.0639 263.0522 15.08878600114356,6917.762,95.435,540.659,538.596,0.0
49431.0,STARLINK-3153,PAYLOAD,2023-12-01 01:25:58,15.08859303,0.0001581,53.2164,353.7092,85.5821,274.5352,0.0011169,0.00017542,0.0,0 STARLINK-3153,1 49431U 21104Z   23335.05970038  .00017542  00000-0  11169-2 0  9996,2 49431  53.2164 353.7092 0001581  85.5821 274.5352 15.08859303114463,6917.821,95.436,540.78,538.593,0.0
49431.0,STARLINK-3153,PAYLOAD,2023-12-01 07:47:30,15.08864534,0.0001232,53.2177,352.5149,102.6672,257.4458,0.0020769,0.00032943,0.0,0 STARLINK-3153,1 49431U 21104Z   23335.32465861  .00032943  00000-0  20769-2 0  9997,2 49431  53.2177 352.5149 0001232 102.6672 257.4458 15.08864534113429,6917.805,95.436,540.523,538.818,0.0
49431.0,STARLINK-3153,PAYLOAD,2023-12-02 01:16:44,15.08874226,0.0001805,53.2175,349.248,92.482,267.6379,0.0016042,0.00025359,0.0,0 STARLINK-3153,1 49431U 21104Z   23336.05329360  .00025359  00000-0  16042-2 0  9993,2 49431  53.2175 349.2480 0001805  92.4820 267.6379 15.08874226114611,6917.776,95.435,540.889,538.392,0.0
49431.0,STARLINK-3153,PAYLOAD,2023-12-02 07:38:16,15.08901043,0.0001644,53.2176,348.0599,89.9773,270.1408,0.0021209,0.00033684,0.0,0 STARLINK-3153,1 49431U 21104Z   23336.31824396  .00033684  00000-0  21209-2 0  9992,2 49431  53.2176 348.0599 0001644  89.9773 270.1408 15.08901043114653,6917.694,95.434,540.696,538.422,0.0
49431.0,STARLINK-3153,PAYLOAD,2023-12-03 04:18:18,15.08800982,0.000162,53.218,344.1951,109.3824,250.7344,-0.0013383,-0.00021501,0.0,0 STARLINK-3153,1 49431U 21104Z   23337.17937773 -.00021501  00000-0 -13383-2 0  9992,2 49431  53.2180 344.1951 0001620 109.3824 250.7344 15.08800982114782,6918.0,95.44,540.985,538.744,0.0
49431.0,STARLINK-3153,PAYLOAD,2023-12-03 10:39:51,15.08797263,0.0001592,53.2177,343.0038,114.1251,245.9908,-0.00031201,-5.244e-05,0.0,0 STARLINK-3153,1 49431U 21104Z   23337.44434710 -.00005244  00000-0 -31201-3 0  9991,2 49431  53.2177 343.0038 0001592 114.1251 245.9908 15.08797263113742,6918.011,95.44,540.977,538.775,0.0
49431.0,STARLINK-3153,PAYLOAD,2023-12-03 12:15:14,15.08798831,0.0001662,53.2176,342.7072,111.3711,248.7459,-0.00018353,-3.204e-05,0.0,0 STARLINK-3153,1 49431U 21104Z   23337.51058886 -.00003204  00000-0 -18353-3 0  9992,2 49431  53.2176 342.7072 0001662 111.3711 248.7459 15.08798831114838,6918.006,95.44,541.021,538.721,0.0
49431.0,STARLINK-3153,PAYLOAD,2023-12-04 04:09:07,15.08832549,0.0001741,53.2174,339.7331,121.1914,238.9249,0.0015909,0.00025117,0.0,0 STARLINK-3153,1 49431U 21104Z   23338.17300165  .00025117  00000-0  15909-2 0  9993,2 49431  53.2174 339.7331 0001741 121.1914 238.9249 15.08832549114936,6917.903,95.438,540.973,538.564,0.0
49431.0,STARLINK-3153,PAYLOAD,2023-12-04 05:44:30,15.08834303,0.0001731,53.2177,339.4353,121.6003,238.5158,0.0014528,0.00022905,0.0,0 STARLINK-3153,1 49431U 21104Z   23338.23924180  .00022905  00000-0  14528-2 0  9997,2 49431  53.2177 339.4353 0001731 121.6003 238.5158 15.08834303113869,6917.898,95.438,540.96,538.565,0.0
49431.0,STARLINK-3153,PAYLOAD,2023-12-05 03:59:54,15.08845479,0.0001743,53.2173,335.2736,124.2403,235.8754,0.0007814,0.00012172,0.0,0 STARLINK-3153,1 49431U 21104Z   23339.16660620  .00012172  00000-0  78140-3 0  9992,2 49431  53.2173 335.2736 0001743 124.2403 235.8754 15.08845479115084,6917.864,95.437,540.934,538.523,0.0
49431.0,STARLINK-3153,PAYLOAD,2023-12-05 08:46:03,15.08855677,0.0001788,53.2167,334.3797,125.5994,234.5165,0.0010055,0.00015758,0.0,0 STARLINK-3153,1 49431U 21104Z   23339.36532343  .00015758  00000-0  10055-2 0  9997,2 49431  53.2167 334.3797 0001788 125.5994 234.5165 15.08855677114039,6917.832,95.437,540.934,538.461,0.0
49431.0,STARLINK-3153,PAYLOAD,2023-12-06 08:36:49,15.08877638,0.0001746,53.2172,329.9187,123.935,236.1808,0.00086818,0.0001357,0.0,0 STARLINK-3153,1 49431U 21104Z   23340.35890729  .00013570  00000-0  86818-3 0  9994,2 49431  53.2172 329.9187 0001746 123.9350 236.1808 15.08877638115269,6917.765,95.435,540.838,538.423,0.0
